NORAD_CAT_ID,OBJECT_NAME,OBJECT_TYPE,EPOCH,MEAN_MOTION,ECCENTRICITY,INCLINATION,RA_OF_ASC_NODE,ARG_OF_PERICENTER,MEAN_ANOMALY,BSTAR,MEAN_MOTION_DOT,MEAN_MOTION_DDOT,TLE_LINE0,TLE_LINE1,TLE_LINE2,SEMIMAJOR_AXIS,PERIOD,APOGEE,PERIGEE,DECAYED
55921.0,STARLINK-5861,PAYLOAD,2024-07-01 14:19:18,14.98332954,0.0003139,70.0002,57.7976,272.7322,87.3478,-9.3307e-05,-1.206e-05,0.0,0 STARLINK-5861,1 55921U 23037H   24183.59673778 -.00001206  00000-0 -93307-4 0  9994,2 55921  70.0002  57.7976 0003139 272.7322  87.3478 14.98332954 71200,6950.184,96.107,574.23,569.867,0.0
55921.0,STARLINK-5861,PAYLOAD,2024-07-01 20:43:50,14.98330785,0.0003137,70.0002,57.1235,271.2054,88.8745,-0.00010242,-1.315e-05,0.0,0 STARLINK-5861,1 55921U 23037H   24183.86377893 -.00001315  00000-0 -10242-3 0  9990,2 55921  70.0002  57.1235 0003137 271.2054  88.8745 14.98330785 71580,6950.19,96.107,574.236,569.875,0.0
55921.0,STARLINK-5861,PAYLOAD,2024-07-01 22:19:58,14.98333827,0.000327,69.9998,56.9549,269.858,90.2205,-8.3938e-05,-1.095e-05,0.0,0 STARLINK-5861,1 55921U 23037H   24183.93053591 -.00001095  00000-0 -83938-4 0  9992,2 55921  69.9998  56.9549 0003270 269.8580  90.2205 14.98333827 71253,6950.181,96.107,574.319,569.773,0.0
55921.0,STARLINK-5861,PAYLOAD,2024-07-02 01:32:14,14.98334192,0.0003274,69.9999,56.6183,269.9184,90.16,-7.1929e-05,-9.51e-06,0.0,0 STARLINK-5861,1 55921U 23037H   24184.06405516 -.00000951  00000-0 -71929-4 0  9992,2 55921  69.9999  56.6183 0003274 269.9184  90.1600 14.98334192 71276,6950.18,96.107,574.32,569.769,0.0
55921.0,STARLINK-5861,PAYLOAD,2024-07-02 20:45:51,14.98328887,0.0003234,69.9999,54.5985,272.4729,87.606,-3.226e-05,-4.78e-06,0.0,0 STARLINK-5861,1 55921U 23037H   24184.86517784 -.00000478  00000-0 -32260-4 0  9990,2 55921  69.9999  54.5985 0003234 272.4729  87.6060 14.98328887 71739,6950.196,96.107,574.309,569.814,0.0
55921.0,STARLINK-5861,PAYLOAD,2024-07-02 22:21:59,14.98327489,0.0003301,69.9999,54.4302,270.8479,89.2302,2.5191e-05,2.08e-06,0.0,0 STARLINK-5861,1 55921U 23037H   24184.93193751  .00000208  00000-0  25191-4 0  9996,2 55921  69.9999  54.4302 0003301 270.8479  89.2302 14.98327489 71408,6950.201,96.107,574.36,569.771,0.0
55921.0,STARLINK-5861,PAYLOAD,2024-07-03 20:47:52,14.98328425,0.0003246,70.0,52.0736,270.6776,89.4011,3.0856e-05,2.75e-06,0.0,0 STARLINK-5861,1 55921U 23037H   24185.86657776  .00000275  00000-0  30856-4 0  9999,2 55921  70.0000  52.0736 0003246 270.6776  89.4011 14.98328425 71887,6950.198,96.107,574.319,569.807,0.0
55921.0,STARLINK-5861,PAYLOAD,2024-07-03 22:24:00,14.98329341,0.0003225,70.0,51.9054,270.405,89.6739,4.422e-05,4.35e-06,0.0,0 STARLINK-5861,1 55921U 23037H   24185.93333684  .00000435  00000-0  44220-4 0  9994,2 55921  70.0000  51.9054 0003225 270.4050  89.6739 14.98329341 71559,6950.195,96.107,574.301,569.818,0.0
55921.0,STARLINK-5861,PAYLOAD,2024-07-04 08:00:48,14.98329101,0.00032,70.0002,50.8953,270.8956,89.1836,2.5277e-05,2.09e-06,0.0,0 STARLINK-5861,1 55921U 23037H   24186.33389724  .00000209  00000-0  25277-4 0  9995,2 55921  70.0002  50.8953 0003200 270.8956  89.1836 14.98329101 71613,6950.196,96.107,574.285,569.837,0.0
55921.0,STARLINK-5861,PAYLOAD,2024-07-04 20:49:53,14.98330048,0.0003195,70.0001,49.5493,266.3735,93.7059,3.7104e-06,-4.9e-07,0.0,0 STARLINK-5861,1 55921U 23037H   24186.86797719 -.00000049  00000-0  37104-5 0  9996,2 55921  70.0001  49.5493 0003195 266.3735  93.7059 14.98330048 72031,6950.193,96.107,574.278,569.837,0.0
55921.0,STARLINK-5861,PAYLOAD,2024-07-04 22:26:01,14.98330405,0.0003185,70.0001,49.3809,266.6571,93.4224,8.6147e-06,1e-07,0.0,0 STARLINK-5861,1 55921U 23037H   24186.93473682  .00000010  00000-0  86147-5 0  9992,2 55921  70.0001  49.3809 0003185 266.6571  93.4224 14.98330405 71701,6950.192,96.107,574.27,569.843,0.0
55921.0,STARLINK-5861,PAYLOAD,2024-07-05 08:02:49,14.98330948,0.000319,70.0001,48.3709,267.6267,92.4527,1.4198e-05,7.6e-07,0.0,0 STARLINK-5861,1 55921U 23037H   24187.33529586  .00000076  00000-0  14198-4 0  9990,2 55921  70.0001  48.3709 0003190 267.6267  92.4527 14.98330948 71761,6950.19,96.107,574.272,569.838,0.0
55921.0,STARLINK-5861,PAYLOAD,2024-07-05 20:51:54,14.98326913,0.0003168,70.0003,47.0246,266.9124,93.1672,7.2133e-05,7.68e-06,0.0,0 STARLINK-5861,1 55921U 23037H   24187.86937687  .00000768  00000-0  72133-4 0  9994,2 55921  70.0003  47.0246 0003168 266.9124  93.1672 14.98326913 72187,6950.202,96.107,574.269,569.866,0.0
55921.0,STARLINK-5861,PAYLOAD,2024-07-05 22:28:02,14.98327935,0.0003151,70.0002,46.8562,267.0186,93.0613,7.2984e-05,7.78e-06,0.0,0 STARLINK-5861,1 55921U 23037H   24187.93613629  .00000778  00000-0  72984-4 0  9994,2 55921  70.0002  46.8562 0003151 267.0186  93.0613 14.98327935 71858,6950.199,96.107,574.254,569.874,0.0
55921.0,STARLINK-5861,PAYLOAD,2024-07-06 14:29:22,14.98336801,0.0003084,69.9999,45.1728,269.0696,91.011,-0.00015284,-1.917e-05,0.0,0 STARLINK-5861,1 55921U 23037H   24188.60373651 -.00001917  00000-0 -15284-3 0  9994,2 55921  69.9999  45.1728 0003084 269.0696  91.0110 14.98336801 71952,6950.172,96.107,574.18,569.893,0.0
55921.0,STARLINK-5861,PAYLOAD,2024-07-06 20:53:55,14.98297707,0.0003028,70.0,44.4996,265.3125,94.7688,0.00049291,5.788e-05,0.0,0 STARLINK-5861,1 55921U 23037H   24188.87078327  .00005788  00000-0  49291-3 0  9998,2 55921  70.0000  44.4996 0003028 265.3125  94.7688 14.98297707 72335,6950.293,96.109,574.262,570.053,0.0
55921.0,STARLINK-5861,PAYLOAD,2024-07-06 22:30:03,14.98294561,0.0002943,70.0,44.3313,265.3657,94.7166,0.00056253,6.619e-05,0.0,0 STARLINK-5861,1 55921U 23037H   24188.93754465  .00006619  00000-0  56253-3 0  9999,2 55921  70.0000  44.3313 0002943 265.3657  94.7166 14.98294561 72002,6950.302,96.109,574.213,570.122,0.0
55921.0,STARLINK-5861,PAYLOAD,2024-07-07 08:06:51,14.98328692,0.000319,69.9999,43.3206,268.7822,91.2972,-2.9427e-05,-4.44e-06,0.0,0 STARLINK-5861,1 55921U 23037H   24189.33809864 -.00000444  00000-0 -29427-4 0  9994,2 55921  69.9999  43.3206 0003190 268.7822  91.2972 14.98328692 72406,6950.197,96.107,574.279,569.845,0.0
55921.0,STARLINK-5861,PAYLOAD,2024-07-07 22:32:03,14.98333439,0.0003267,69.9997,41.8055,269.2001,90.8784,2.2949e-05,1.81e-06,0.0,0 STARLINK-5861,1 55921U 23037H   24189.93893394  .00000181  00000-0  22949-4 0  9999,2 55921  69.9997  41.8055 0003267 269.2001  90.8784 14.98333439 72499,6950.182,96.107,574.318,569.777,0.0
55921.0,STARLINK-5861,PAYLOAD,2024-07-08 14:33:24,14.98330046,0.000326,69.9998,40.122,269.69,90.3886,6.1762e-05,6.44e-06,0.0,0 STARLINK-5861,1 55921U 23037H   24190.60653385  .00000644  00000-0  61762-4 0  9999,2 55921  69.9998  40.1220 0003260 269.6900  90.3886 14.98330046 72254,6950.193,96.107,574.324,569.792,0.0
55921.0,STARLINK-5861,PAYLOAD,2024-07-08 22:34:04,14.98334649,0.0003242,69.9999,39.2804,269.4126,90.6662,7.2015e-05,7.66e-06,0.0,0 STARLINK-5861,1 55921U 23037H   24190.94033019  .00000766  00000-0  72015-4 0  9990,2 55921  69.9999  39.2804 0003242 269.4126  90.6662 14.98334649 72304,6950.179,96.107,574.297,569.79,0.0
55921.0,STARLINK-5861,PAYLOAD,2024-07-09 00:10:12,14.98335272,0.000324,69.9999,39.1121,269.4102,90.6686,7.7551e-05,8.33e-06,0.0,0 STARLINK-5861,1 55921U 23037H   24191.00708944  .00000833  00000-0  77551-4 0  9999,2 55921  69.9999  39.1121 0003240 269.4102  90.6686 14.98335272 72654,6950.177,96.107,574.293,569.79,0.0
55921.0,STARLINK-5861,PAYLOAD,2024-07-09 12:59:17,14.98328997,0.0003114,70.0003,37.7656,269.9539,90.1263,-4.3402e-05,-6.11e-06,0.0,0 STARLINK-5861,1 55921U 23037H   24191.54117635 -.00000611  00000-0 -43402-4 0  9993,2 55921  70.0003  37.7656 0003114 269.9539  90.1263 14.98328997 72730,6950.196,96.107,574.225,569.897,0.0
55921.0,STARLINK-5861,PAYLOAD,2024-07-09 14:35:25,14.98329811,0.0003147,70.0003,37.5973,269.4855,90.5943,-3.3117e-05,-4.88e-06,0.0,0 STARLINK-5861,1 55921U 23037H   24191.60793539 -.00000488  00000-0 -33117-4 0  9997,2 55921  70.0003  37.5973 0003147 269.4855  90.5943 14.98329811 72401,6950.193,96.107,574.246,569.871,0.0
55921.0,STARLINK-5861,PAYLOAD,2024-07-09 22:36:05,14.98329297,0.0003104,70.0004,36.7562,266.7242,93.3562,-1.9516e-05,-3.26e-06,0.0,0 STARLINK-5861,1 55921U 23037H   24191.94173506 -.00000326  00000-0 -19516-4 0  9998,2 55921  70.0004  36.7562 0003104 266.7242  93.3562 14.98329297 72451,6950.195,96.107,574.217,569.903,0.0
55921.0,STARLINK-5861,PAYLOAD,2024-07-10 06:36:46,14.98330113,0.0003107,70.0004,35.9143,267.7503,92.33,-3.2598e-05,-4.82e-06,0.0,0 STARLINK-5861,1 55921U 23037H   24192.27553474 -.00000482  00000-0 -32598-4 0  9999,2 55921  70.0004  35.9143 0003107 267.7503  92.3300 14.98330113 72505,6950.193,96.107,574.217,569.898,0.0
55921.0,STARLINK-5861,PAYLOAD,2024-07-10 21:01:58,14.98331548,0.0003121,70.0004,34.3994,267.4737,92.6065,-3.6774e-05,-5.32e-06,0.0,0 STARLINK-5861,1 55921U 23037H   24192.87637351 -.00000532  00000-0 -36774-4 0  9998,2 55921  70.0004  34.3994 0003121 267.4737  92.6065 14.98331548 72935,6950.188,96.107,574.222,569.884,0.0
55921.0,STARLINK-5861,PAYLOAD,2024-07-10 22:38:06,14.9833163,0.0003122,70.0004,34.2311,267.6501,92.4301,-3.4723e-05,-5.07e-06,0.0,0 STARLINK-5861,1 55921U 23037H   24192.94313334 -.00000507  00000-0 -34723-4 0  9992,2 55921  70.0004  34.2311 0003122 267.6501  92.4301 14.98331630 72606,6950.188,96.107,574.223,569.883,0.0
55921.0,STARLINK-5861,PAYLOAD,2024-07-11 14:39:27,14.98328009,0.0003156,70.0003,32.5476,267.1714,92.9084,2.9009e-05,2.53e-06,0.0,0 STARLINK-5861,1 55921U 23037H   24193.61073344  .00000253  00000-0  29009-4 0  9998,2 55921  70.0003  32.5476 0003156 267.1714  92.9084 14.98328009 72706,6950.199,96.107,574.258,569.871,0.0
55921.0,STARLINK-5861,PAYLOAD,2024-07-11 19:27:51,14.98328543,0.0003195,70.0002,32.0425,267.5365,92.5428,1.5417e-05,9.1e-07,0.0,0 STARLINK-5861,1 55921U 23037H   24193.81101363  .00000091  00000-0  15417-4 0  9991,2 55921  70.0002  32.0425 0003195 267.5365  92.5428 14.98328543 72737,6950.197,96.107,574.283,569.842,0.0
